[{"OBJECT_NAME":"NANOSAT-1","OBJECT_ID":"2004-049B","EPOCH":"2026-03-09T22:09:44.581824","MEAN_MOTION":14.79922101,"ECCENTRICITY":0.00029678,"INCLINATION":98.2096,"RA_OF_ASC_NODE":203.2649,"ARG_OF_PERICENTER":243.7853,"MEAN_ANOMALY":116.3053,"EPHEMERIS_TYPE":0,"CLASSIFICATION_TYPE":"U","NORAD_CAT_ID":28493,"ELEMENT_SET_NO":999,"REV_AT_EPOCH":14076,"BSTAR":0.00025095221,"MEAN_MOTION_DOT":1.84e-5,"MEAN_MOTION_DDOT":0},{"OBJECT_NAME":"COSMOS 2251 DEB","OBJECT_ID":"1993-036DQ","EPOCH":"2026-03-09T22:46:14.377728","MEAN_MOTION":14.7753798,"ECCENTRICITY":0.00154162,"INCLINATION":74.092,"RA_OF_ASC_NODE":351.6782,"ARG_OF_PERICENTER":258.0076,"MEAN_ANOMALY":222.0326,"EPHEMERIS_TYPE":0,"CLASSIFICATION_TYPE":"U","NORAD_CAT_ID":33911,"ELEMENT_SET_NO":999,"REV_AT_EPOCH":89931,"BSTAR":0.002265833,"MEAN_MOTION_DOT":0.00016213,"MEAN_MOTION_DDOT":0}]
